{"fetched_at":"2026-07-17T06:38:29.983Z","source":"https://celestrak.org/NORAD/elements/gp.php?NAME=PLEIADES&FORMAT=JSON","constellation":"pleiades","records":[{"OBJECT_NAME":"PLEIADES 1A","OBJECT_ID":"2011-076F","EPOCH":"2026-07-16T20:16:11.955648","CLASSIFICATION_TYPE":"U","MEAN_MOTION":14.58547095,"ECCENTRICITY":0.0001654,"INCLINATION":98.1972,"RA_OF_ASC_NODE":272.5472,"ARG_OF_PERICENTER":78.4696,"MEAN_ANOMALY":57.8063,"EPHEMERIS_TYPE":0,"NORAD_CAT_ID":38012,"ELEMENT_SET_NO":999,"REV_AT_EPOCH":77631,"BSTAR":0.000024553,"MEAN_MOTION_DOT":6.8e-7,"MEAN_MOTION_DDOT":0},{"OBJECT_NAME":"PLEIADES 1B","OBJECT_ID":"2012-068A","EPOCH":"2026-07-16T20:27:46.533024","CLASSIFICATION_TYPE":"U","MEAN_MOTION":14.58534179,"ECCENTRICITY":0.0001562,"INCLINATION":98.1943,"RA_OF_ASC_NODE":272.494,"ARG_OF_PERICENTER":78.1517,"MEAN_ANOMALY":281.9857,"EPHEMERIS_TYPE":0,"NORAD_CAT_ID":39019,"ELEMENT_SET_NO":999,"REV_AT_EPOCH":72517,"BSTAR":-0.0000022478,"MEAN_MOTION_DOT":-5.6e-7,"MEAN_MOTION_DDOT":0}]}
